NIMIQ 2                 
1 27632U 02062A   26065.98781494 -.00000070  00000+0  00000+0 0  9995
2 27632   9.2100  57.9543 0006540 293.2810  59.8854  1.00272969 43155
ANIK F2                 
1 28378U 04027A   26066.27268955 -.00000051  00000+0  00000+0 0  9990
2 28378   3.0216  80.8083 0003207 299.7566 131.4684  1.00272117 40243
ANIK F1R                
1 28868U 05036A   26066.34037048 -.00000076  00000+0  00000+0 0  9997
2 28868   4.0519  77.8529 0002731 296.7446 165.6784  1.00269352 45433
ANIK F3                 
1 31102U 07009A   26066.46572308 -.00000002  00000+0  00000+0 0  9999
2 31102   0.9343  85.1699 0002773 260.4163 228.5354  1.00271185 45549
NIMIQ 4                 
1 33373U 08044A   26066.34628199 -.00000222  00000+0  00000+0 0  9992
2 33373   0.0086 146.6504 0002126 216.9597 204.0780  1.00270632 63967
TELSTAR 11N             
1 34111U 09009A   26066.28794771 -.00000253  00000+0  00000+0 0  9992
2 34111   0.0197 148.7537 0002560 190.8927 251.4440  1.00272858 45229
TERRESTAR-1             
1 35496U 09035A   26066.46017098 -.00000057  00000+0  00000+0 0  9990
2 35496   5.0976  48.8304 0002877 306.5183 224.4896  1.00273549 61118
NIMIQ 5                 
1 35873U 09050A   26066.64800123 -.00000258  00000+0  00000+0 0  9998
2 35873   0.0445 267.2823 0002652  86.1954 332.4429  1.00272250 60326
SKYTERRA 1              
1 37218U 10061A   26066.33860538 -.00000119  00000+0  00000+0 0  9995
2 37218   4.9083  50.9104 0001553 306.9976 187.7067  1.00272953 56174
TELSTAR 14R             
1 37602U 11021A   26066.28222293 -.00000282  00000+0  00000+0 0  9994
2 37602   0.0207 245.6930 0002395 109.6579 208.2368  1.00272323 54811
NIMIQ 6                 
1 38342U 12026A   26066.21780920 -.00000176  00000+0  00000+0 0  9993
2 38342   0.0486 279.3135 0002575  63.7404 169.1707  1.00273099 49390
ANIK G1                 
1 39127U 13014A   26066.34052101 -.00000076  00000+0  00000+0 0  9999
2 39127   0.0477 267.9138 0002903  59.9759 212.4293  1.00272104 47232
TELSTAR 12V             
1 41036U 15068A   26066.42961529 -.00000120  00000+0  00000+0 0  9994
2 41036   0.0182 191.6161 0002613 156.0136 317.1676  1.00272168 37600
VIASAT-2                
1 42740U 17029A   26066.37961633 -.00000266  00000+0  00000+0 0  9997
2 42740   0.0261 254.8468 0000694 231.7464 105.2412  1.00257135 32184
LEO 1 (LEO VANTAGE 1)   
1 43113U 18004C   26066.45586876  .00006348  00000+0  43934-3 0  9990
2 43113  99.2479 331.4859 0353138  31.7407 330.4562 14.67157945422563
TELSTAR 19V             
1 43562U 18059A   26066.11266819 -.00000282  00000+0  00000+0 0  9998
2 43562   0.0210 157.4695 0000911 274.2236  70.6731  1.00271480 28129
TELSTAR 18V             
1 43611U 18069A   26065.97128064 -.00000297  00000+0  00000+0 0  9992
2 43611   0.0167 202.1119 0002106 146.7132 303.5028  1.00270292 27609
