[{"OBJECT_NAME":"NIMIQ 2","OBJECT_ID":"2002-062A","EPOCH":"2026-03-06T23:42:27.210816","MEAN_MOTION":1.00272969,"ECCENTRICITY":0.00065402,"INCLINATION":9.21,"RA_OF_ASC_NODE":57.9543,"ARG_OF_PERICENTER":293.281,"MEAN_ANOMALY":59.8854,"EPHEMERIS_TYPE":0,"CLASSIFICATION_TYPE":"U","NORAD_CAT_ID":27632,"ELEMENT_SET_NO":999,"REV_AT_EPOCH":4315,"BSTAR":0,"MEAN_MOTION_DOT":-7.0e-7,"MEAN_MOTION_DDOT":0},{"OBJECT_NAME":"ANIK F2","OBJECT_ID":"2004-027A","EPOCH":"2026-03-07T06:32:40.377120","MEAN_MOTION":1.00272117,"ECCENTRICITY":0.0003207,"INCLINATION":3.0216,"RA_OF_ASC_NODE":80.8083,"ARG_OF_PERICENTER":299.7566,"MEAN_ANOMALY":131.4684,"EPHEMERIS_TYPE":0,"CLASSIFICATION_TYPE":"U","NORAD_CAT_ID":28378,"ELEMENT_SET_NO":999,"REV_AT_EPOCH":4024,"BSTAR":0,"MEAN_MOTION_DOT":-5.1e-7,"MEAN_MOTION_DDOT":0},{"OBJECT_NAME":"ANIK F1R","OBJECT_ID":"2005-036A","EPOCH":"2026-03-07T08:10:08.009472","MEAN_MOTION":1.00269352,"ECCENTRICITY":0.00027316,"INCLINATION":4.0519,"RA_OF_ASC_NODE":77.8529,"ARG_OF_PERICENTER":296.7446,"MEAN_ANOMALY":165.6784,"EPHEMERIS_TYPE":0,"CLASSIFICATION_TYPE":"U","NORAD_CAT_ID":28868,"ELEMENT_SET_NO":999,"REV_AT_EPOCH":4543,"BSTAR":0,"MEAN_MOTION_DOT":-7.6e-7,"MEAN_MOTION_DDOT":0},{"OBJECT_NAME":"ANIK F3","OBJECT_ID":"2007-009A","EPOCH":"2026-03-07T11:10:38.474112","MEAN_MOTION":1.00271185,"ECCENTRICITY":0.00027731,"INCLINATION":0.9343,"RA_OF_ASC_NODE":85.1699,"ARG_OF_PERICENTER":260.4163,"MEAN_ANOMALY":228.5354,"EPHEMERIS_TYPE":0,"CLASSIFICATION_TYPE":"U","NORAD_CAT_ID":31102,"ELEMENT_SET_NO":999,"REV_AT_EPOCH":4554,"BSTAR":0,"MEAN_MOTION_DOT":-2.0e-8,"MEAN_MOTION_DDOT":0},{"OBJECT_NAME":"NIMIQ 4","OBJECT_ID":"2008-044A","EPOCH":"2026-03-07T08:18:38.763936","MEAN_MOTION":1.00270632,"ECCENTRICITY":0.00021262,"INCLINATION":0.0086,"RA_OF_ASC_NODE":146.6504,"ARG_OF_PERICENTER":216.9597,"MEAN_ANOMALY":204.078,"EPHEMERIS_TYPE":0,"CLASSIFICATION_TYPE":"U","NORAD_CAT_ID":33373,"ELEMENT_SET_NO":999,"REV_AT_EPOCH":6396,"BSTAR":0,"MEAN_MOTION_DOT":-2.22e-6,"MEAN_MOTION_DDOT":0},{"OBJECT_NAME":"TELSTAR 11N","OBJECT_ID":"2009-009A","EPOCH":"2026-03-07T06:54:38.682144","MEAN_MOTION":1.00272858,"ECCENTRICITY":0.000256,"INCLINATION":0.0197,"RA_OF_ASC_NODE":148.7537,"ARG_OF_PERICENTER":190.8927,"MEAN_ANOMALY":251.444,"EPHEMERIS_TYPE":0,"CLASSIFICATION_TYPE":"U","NORAD_CAT_ID":34111,"ELEMENT_SET_NO":999,"REV_AT_EPOCH":4522,"BSTAR":0,"MEAN_MOTION_DOT":-2.53e-6,"MEAN_MOTION_DDOT":0},{"OBJECT_NAME":"TERRESTAR-1","OBJECT_ID":"2009-035A","EPOCH":"2026-03-07T11:02:38.772672","MEAN_MOTION":1.00273549,"ECCENTRICITY":0.00028777,"INCLINATION":5.0976,"RA_OF_ASC_NODE":48.8304,"ARG_OF_PERICENTER":306.5183,"MEAN_ANOMALY":224.4896,"EPHEMERIS_TYPE":0,"CLASSIFICATION_TYPE":"U","NORAD_CAT_ID":35496,"ELEMENT_SET_NO":999,"REV_AT_EPOCH":6111,"BSTAR":0,"MEAN_MOTION_DOT":-5.7e-7,"MEAN_MOTION_DDOT":0},{"OBJECT_NAME":"NIMIQ 5","OBJECT_ID":"2009-050A","EPOCH":"2026-03-07T15:33:07.306272","MEAN_MOTION":1.0027225,"ECCENTRICITY":0.00026529,"INCLINATION":0.0445,"RA_OF_ASC_NODE":267.2823,"ARG_OF_PERICENTER":86.1954,"MEAN_ANOMALY":332.4429,"EPHEMERIS_TYPE":0,"CLASSIFICATION_TYPE":"U","NORAD_CAT_ID":35873,"ELEMENT_SET_NO":999,"REV_AT_EPOCH":6032,"BSTAR":0,"MEAN_MOTION_DOT":-2.58e-6,"MEAN_MOTION_DDOT":0},{"OBJECT_NAME":"SKYTERRA 1","OBJECT_ID":"2010-061A","EPOCH":"2026-03-07T08:07:35.504832","MEAN_MOTION":1.00272953,"ECCENTRICITY":0.0001553,"INCLINATION":4.9083,"RA_OF_ASC_NODE":50.9104,"ARG_OF_PERICENTER":306.9976,"MEAN_ANOMALY":187.7067,"EPHEMERIS_TYPE":0,"CLASSIFICATION_TYPE":"U","NORAD_CAT_ID":37218,"ELEMENT_SET_NO":999,"REV_AT_EPOCH":5617,"BSTAR":0,"MEAN_MOTION_DOT":-1.19e-6,"MEAN_MOTION_DDOT":0},{"OBJECT_NAME":"TELSTAR 14R","OBJECT_ID":"2011-021A","EPOCH":"2026-03-07T06:46:24.061152","MEAN_MOTION":1.00272323,"ECCENTRICITY":0.0002395,"INCLINATION":0.0207,"RA_OF_ASC_NODE":245.693,"ARG_OF_PERICENTER":109.6579,"MEAN_ANOMALY":208.2368,"EPHEMERIS_TYPE":0,"CLASSIFICATION_TYPE":"U","NORAD_CAT_ID":37602,"ELEMENT_SET_NO":999,"REV_AT_EPOCH":5481,"BSTAR":0,"MEAN_MOTION_DOT":-2.82e-6,"MEAN_MOTION_DDOT":0},{"OBJECT_NAME":"NIMIQ 6","OBJECT_ID":"2012-026A","EPOCH":"2026-03-07T05:13:38.714880","MEAN_MOTION":1.00273099,"ECCENTRICITY":0.00025751,"INCLINATION":0.0486,"RA_OF_ASC_NODE":279.3135,"ARG_OF_PERICENTER":63.7404,"MEAN_ANOMALY":169.1707,"EPHEMERIS_TYPE":0,"CLASSIFICATION_TYPE":"U","NORAD_CAT_ID":38342,"ELEMENT_SET_NO":999,"REV_AT_EPOCH":4939,"BSTAR":0,"MEAN_MOTION_DOT":-1.76e-6,"MEAN_MOTION_DDOT":0},{"OBJECT_NAME":"ANIK G1","OBJECT_ID":"2013-014A","EPOCH":"2026-03-07T08:10:21.015264","MEAN_MOTION":1.00272104,"ECCENTRICITY":0.0002903,"INCLINATION":0.0477,"RA_OF_ASC_NODE":267.9138,"ARG_OF_PERICENTER":59.9759,"MEAN_ANOMALY":212.4293,"EPHEMERIS_TYPE":0,"CLASSIFICATION_TYPE":"U","NORAD_CAT_ID":39127,"ELEMENT_SET_NO":999,"REV_AT_EPOCH":4723,"BSTAR":0,"MEAN_MOTION_DOT":-7.6e-7,"MEAN_MOTION_DDOT":0},{"OBJECT_NAME":"TELSTAR 12V","OBJECT_ID":"2015-068A","EPOCH":"2026-03-07T10:18:38.761056","MEAN_MOTION":1.00272168,"ECCENTRICITY":0.00026138,"INCLINATION":0.0182,"RA_OF_ASC_NODE":191.6161,"ARG_OF_PERICENTER":156.0136,"MEAN_ANOMALY":317.1676,"EPHEMERIS_TYPE":0,"CLASSIFICATION_TYPE":"U","NORAD_CAT_ID":41036,"ELEMENT_SET_NO":999,"REV_AT_EPOCH":3760,"BSTAR":0,"MEAN_MOTION_DOT":-1.2e-6,"MEAN_MOTION_DDOT":0},{"OBJECT_NAME":"VIASAT-2","OBJECT_ID":"2017-029A","EPOCH":"2026-03-07T09:06:38.850912","MEAN_MOTION":1.00257135,"ECCENTRICITY":6.947e-5,"INCLINATION":0.0261,"RA_OF_ASC_NODE":254.8468,"ARG_OF_PERICENTER":231.7464,"MEAN_ANOMALY":105.2412,"EPHEMERIS_TYPE":0,"CLASSIFICATION_TYPE":"U","NORAD_CAT_ID":42740,"ELEMENT_SET_NO":999,"REV_AT_EPOCH":3218,"BSTAR":0,"MEAN_MOTION_DOT":-2.66e-6,"MEAN_MOTION_DDOT":0},{"OBJECT_NAME":"LEO 1 (LEO VANTAGE 1)","OBJECT_ID":"2018-004C","EPOCH":"2026-03-07T10:56:27.060864","MEAN_MOTION":14.67157945,"ECCENTRICITY":0.03531382,"INCLINATION":99.2479,"RA_OF_ASC_NODE":331.4859,"ARG_OF_PERICENTER":31.7407,"MEAN_ANOMALY":330.4562,"EPHEMERIS_TYPE":0,"CLASSIFICATION_TYPE":"U","NORAD_CAT_ID":43113,"ELEMENT_SET_NO":999,"REV_AT_EPOCH":42256,"BSTAR":0.00043933707,"MEAN_MOTION_DOT":6.348e-5,"MEAN_MOTION_DDOT":0},{"OBJECT_NAME":"TELSTAR 19V","OBJECT_ID":"2018-059A","EPOCH":"2026-03-07T02:42:14.531616","MEAN_MOTION":1.0027148,"ECCENTRICITY":9.117e-5,"INCLINATION":0.021,"RA_OF_ASC_NODE":157.4695,"ARG_OF_PERICENTER":274.2236,"MEAN_ANOMALY":70.6731,"EPHEMERIS_TYPE":0,"CLASSIFICATION_TYPE":"U","NORAD_CAT_ID":43562,"ELEMENT_SET_NO":999,"REV_AT_EPOCH":2812,"BSTAR":0,"MEAN_MOTION_DOT":-2.82e-6,"MEAN_MOTION_DDOT":0},{"OBJECT_NAME":"TELSTAR 18V","OBJECT_ID":"2018-069A","EPOCH":"2026-03-06T23:18:38.647296","MEAN_MOTION":1.00270292,"ECCENTRICITY":0.00021067,"INCLINATION":0.0167,"RA_OF_ASC_NODE":202.1119,"ARG_OF_PERICENTER":146.7132,"MEAN_ANOMALY":303.5028,"EPHEMERIS_TYPE":0,"CLASSIFICATION_TYPE":"U","NORAD_CAT_ID":43611,"ELEMENT_SET_NO":999,"REV_AT_EPOCH":2760,"BSTAR":0,"MEAN_MOTION_DOT":-2.97e-6,"MEAN_MOTION_DDOT":0}]
